DUPLEX                  
1 66906U 98067XS  26095.28483348  .00034554  00000+0  45585-3 0  9999
2 66906  51.6286 296.2512 0003388 238.8669 121.1992 15.58054408 19272
ISS OBJECT XT           
1 66907U 98067XT  26094.54951221  .00316879  00000+0  15900-2 0  9998
2 66907  51.6224 292.7926 0007185 249.6883 110.3346 15.80264331 19256
ISS OBJECT XU           
1 66908U 98067XU  26094.54446233  .00330086  00000+0  16263-2 0  9990
2 66908  51.6221 292.7537 0007323 249.1942 110.8275 15.80626802 19258
SILVERSAT               
1 66909U 98067XV  26094.78704661  .00565248  00000+0  18876-2 0  9991
2 66909  51.6184 289.8512 0009050 258.4718 101.5271 15.88187528 19315
ISS OBJECT XW           
1 66910U 98067XW  26094.81721722  .00228077  00000+0  12620-2 0  9991
2 66910  51.6195 291.5715 0007449 246.0581 113.9639 15.78347512 19297
ISS OBJECT XX           
1 66911U 98067XX  26095.25439823  .01178235  72726-3  21826-2 0  9996
2 66911  51.6140 285.4187 0011680 268.8533  91.1139 16.00504805 19405
ISS OBJECT XY           
1 66912U 98067XY  26095.24871134  .00141961  00000+0  11559-2 0  9990
2 66912  51.6246 292.2426 0005164 247.0020 113.0432 15.69674639 19312
KNACKSAT-2              
1 67683U 98067XZ  26094.79014270  .00049990  00000+0  75544-3 0  9999
2 67683  51.6331 301.9471 0010720 281.6024  78.3763 15.54148205  8848
CORAL                   
1 67684U 98067YA  26095.27882438  .00113769  00000+0  13998-2 0  9993
2 67684  51.6289 298.4624 0013683 274.6624  85.2805 15.59272459  8938
GXIBA-1                 
1 67685U 98067YB  26094.77752869  .00056407  00000+0  83058-3 0  9992
2 67685  51.6301 301.8662 0012502 279.3255  80.6322 15.54782829  8841
UITMSAT-2               
1 67686U 98067YC  26095.27206808  .00071028  00000+0  99793-3 0  9995
2 67686  51.6300 299.1708 0009567 255.7390 104.2539 15.55998102  8922
HMU-SAT2                
1 67687U 98067YD  26094.78362938  .00054021  00000+0  80536-3 0  9997
2 67687  51.6310 301.9093 0009085 256.2021 103.7959 15.54504888  8760
LEOPARD                 
1 67688U 98067YE  26094.83129328  .00053651  00000+0  77371-3 0  9999
2 67688  51.6311 301.4769 0009245 254.0354 105.9619 15.55413317  8775
CREW DRAGON 12          
1 67796U 26031A   26095.03712624  .00009326  00000+0  17854-3 0  9991
2 67796  51.6327 302.0967 0006294 273.6206  86.4063 15.48778120560387
PROGRESS-MS 33          
1 68319U 26058A   26095.03712624  .00009326  00000+0  17854-3 0  9992
2 68319  51.6327 302.0967 0006294 273.6206  86.4063 15.48778120  1895
